******** Week 708 almanac for PRN-01 ********
ID:                         01
Health:                     000
Eccentricity:               0.1670360565E-002
Time of Applicability(s):  233472.0000
Orbital Inclination(rad):   0.9605679836
Rate of Right Ascen(r/s):  -0.7874613724E-008
SQRT(A)  (m 1/2):           5153.647949
Right Ascen at Week(rad):  -0.2115661359E+000
Argument of Perigee(rad):   0.342818491
Mean Anom(rad):             0.6752657581E+000
Af0(s):                     0.8583068848E-005
Af1(s/s):                   0.3637978807E-011
week:                        708

******** Week 708 almanac for PRN-02 ********
ID:                         02
Health:                     000
Eccentricity:               0.1217079163E-001
Time of Applicability(s):  233472.0000
Orbital Inclination(rad):   0.9390802683
Rate of Right Ascen(r/s):  -0.8057478483E-008
SQRT(A)  (m 1/2):           5153.566895
Right Ascen at Week(rad):  -0.2316996338E+000
Argument of Perigee(rad):  -2.641797670
Mean Anom(rad):             0.1511856785E+001
Af0(s):                     0.4234313965E-003
Af1(s/s):                   0.0000000000E+000
week:                        708

******** Week 708 almanac for PRN-03 ********
ID:                         03
Health:                     000
Eccentricity:               0.1604270935E-001
Time of Applicability(s):  233472.0000
Orbital Inclination(rad):   0.9335435564
Rate of Right Ascen(r/s):  -0.8137481816E-008
SQRT(A)  (m 1/2):           5153.626953
Right Ascen at Week(rad):  -0.1400479518E+001
Argument of Perigee(rad):   1.274281511
Mean Anom(rad):             0.1681003634E+001
Af0(s):                     0.1831054688E-003
Af1(s/s):                   0.3637978807E-011
week:                        708

******** Week 708 almanac for PRN-04 ********
ID:                         04
Health:                     000
Eccentricity:               0.1032829285E-001
Time of Applicability(s):  233472.0000
Orbital Inclination(rad):   0.9381215303
Rate of Right Ascen(r/s):  -0.8091765626E-008
SQRT(A)  (m 1/2):           5153.704102
Right Ascen at Week(rad):  -0.2151812523E+000
Argument of Perigee(rad):   0.964729356
Mean Anom(rad):            -0.1533669198E+001
Af0(s):                     0.1659393311E-003
Af1(s/s):                   0.1091393642E-010
week:                        708

******** Week 708 almanac for PRN-05 ********
ID:                         05
Health:                     000
Eccentricity:               0.3050327301E-002
Time of Applicability(s):  233472.0000
Orbital Inclination(rad):   0.9491889620
Rate of Right Ascen(r/s):  -0.8000333246E-008
SQRT(A)  (m 1/2):           5153.521973
Right Ascen at Week(rad):   0.8327894063E+000
Argument of Perigee(rad):   0.312504019
Mean Anom(rad):            -0.2667694456E+001
Af0(s):                    -0.3881454468E-003
Af1(s/s):                   0.0000000000E+000
week:                        708

******** Week 708 almanac for PRN-06 ********
ID:                         06
Health:                     000
Eccentricity:               0.7887840271E-002
Time of Applicability(s):  233472.0000
Orbital Inclination(rad):   0.9402367460
Rate of Right Ascen(r/s):  -0.8068907531E-008
SQRT(A)  (m 1/2):           5153.629395
Right Ascen at Week(rad):  -0.1321500855E+001
Argument of Perigee(rad):  -0.365990364
Mean Anom(rad):            -0.2731251295E+001
Af0(s):                     0.3080368042E-003
Af1(s/s):                  -0.1455191523E-010
week:                        708

******** Week 708 almanac for PRN-07 ********
ID:                         07
Health:                     000
Eccentricity:               0.6136894226E-002
Time of Applicability(s):  233472.0000
Orbital Inclination(rad):   0.9758298940
Rate of Right Ascen(r/s):  -0.7897471819E-008
SQRT(A)  (m 1/2):           5153.655762
Right Ascen at Week(rad):   0.2949046232E+001
Argument of Perigee(rad):  -2.930092805
Mean Anom(rad):             0.1197486223E+000
Af0(s):                     0.1926422119E-003
Af1(s/s):                   0.3637978807E-011
week:                        708

******** Week 708 almanac for PRN-08 ********
ID:                         08
Health:                     000
Eccentricity:               0.1276731491E-001
Time of Applicability(s):  233472.0000
Orbital Inclination(rad):   0.9984860712
Rate of Right Ascen(r/s):  -0.7680319916E-008
SQRT(A)  (m 1/2):           5153.552246
Right Ascen at Week(rad):   0.3038739916E+001
Argument of Perigee(rad):  -2.878053930
Mean Anom(rad):            -0.4334102427E+000
Af0(s):                     0.4768371582E-005
Af1(s/s):                   0.0000000000E+000
week:                        708

******** Week 708 almanac for PRN-09 ********
ID:                         09
Health:                     000
Eccentricity:               0.1719903946E-001
Time of Applicability(s):  233472.0000
Orbital Inclination(rad):   0.9844705201
Rate of Right Ascen(r/s):  -0.7806039439E-008
SQRT(A)  (m 1/2):           5152.762695
Right Ascen at Week(rad):   0.2925373268E+001
Argument of Perigee(rad):   1.641292032
Mean Anom(rad):             0.3750354577E+000
Af0(s):                     0.2279281616E-003
Af1(s/s):                   0.3637978807E-011
week:                        708

******** Week 708 almanac for PRN-10 ********
ID:                         10
Health:                     000
Eccentricity:               0.1233100891E-001
Time of Applicability(s):  233472.0000
Orbital Inclination(rad):   0.9440117769
Rate of Right Ascen(r/s):  -0.8034620388E-008
SQRT(A)  (m 1/2):           5153.558594
Right Ascen at Week(rad):   0.8526188044E+000
Argument of Perigee(rad):   0.798270719
Mean Anom(rad):            -0.2380083545E+001
Af0(s):                    -0.7343292236E-004
Af1(s/s):                   0.0000000000E+000
week:                        708

******** Week 708 almanac for PRN-11 ********
ID:                         11
Health:                     000
Eccentricity:               0.1385974884E-001
Time of Applicability(s):  233472.0000
Orbital Inclination(rad):   0.8889682319
Rate of Right Ascen(r/s):  -0.8583214668E-008
SQRT(A)  (m 1/2):           5153.613770
Right Ascen at Week(rad):  -0.5033037404E+000
Argument of Perigee(rad):   1.150971701
Mean Anom(rad):             0.3252874421E+000
Af0(s):                    -0.3643035889E-003
Af1(s/s):                  -0.3637978807E-011
week:                        708

******** Week 708 almanac for PRN-12 ********
ID:                         12
Health:                     000
Eccentricity:               0.4420757294E-002
Time of Applicability(s):  233472.0000
Orbital Inclination(rad):   0.9832840819
Rate of Right Ascen(r/s):  -0.7783181344E-008
SQRT(A)  (m 1/2):           5153.561035
Right Ascen at Week(rad):  -0.2276314763E+001
Argument of Perigee(rad):   0.178102809
Mean Anom(rad):            -0.1553586231E+000
Af0(s):                     0.1239776611E-003
Af1(s/s):                   0.3637978807E-011
week:                        708

******** Week 708 almanac for PRN-13 ********
ID:                         13
Health:                     000
Eccentricity:               0.5110740662E-002
Time of Applicability(s):  233472.0000
Orbital Inclination(rad):   0.9820676831
Rate of Right Ascen(r/s):  -0.7668890869E-008
SQRT(A)  (m 1/2):           5153.737305
Right Ascen at Week(rad):   0.1981444407E+001
Argument of Perigee(rad):   2.064544520
Mean Anom(rad):             0.2607400323E+001
Af0(s):                     0.1363754272E-003
Af1(s/s):                  -0.3637978807E-011
week:                        708

******** Week 708 almanac for PRN-14 ********
ID:                         14
Health:                     000
Eccentricity:               0.6708145142E-002
Time of Applicability(s):  233472.0000
Orbital Inclination(rad):   0.9747632980
Rate of Right Ascen(r/s):  -0.7760323249E-008
SQRT(A)  (m 1/2):           5153.675781
Right Ascen at Week(rad):   0.1952672155E+001
Argument of Perigee(rad):  -2.027168719
Mean Anom(rad):             0.2713284695E+001
Af0(s):                     0.2212524414E-003
Af1(s/s):                   0.0000000000E+000
week:                        708

******** Week 708 almanac for PRN-15 ********
ID:                         15
Health:                     000
Eccentricity:               0.5364418030E-002
Time of Applicability(s):  233472.0000
Orbital Inclination(rad):   0.9413992158
Rate of Right Ascen(r/s):  -0.8080336578E-008
SQRT(A)  (m 1/2):           5153.674316
Right Ascen at Week(rad):   0.1855025814E+001
Argument of Perigee(rad):   0.159468089
Mean Anom(rad):             0.2203775373E+001
Af0(s):                    -0.1125335693E-003
Af1(s/s):                   0.0000000000E+000
week:                        708

******** Week 708 almanac for PRN-16 ********
ID:                         16
Health:                     000
Eccentricity:               0.7069587708E-002
Time of Applicability(s):  233472.0000
Orbital Inclination(rad):   0.9839911511
Rate of Right Ascen(r/s):  -0.7771752296E-008
SQRT(A)  (m 1/2):           5153.560059
Right Ascen at Week(rad):  -0.2257973281E+001
Argument of Perigee(rad):   0.048919232
Mean Anom(rad):            -0.2366091962E+001
Af0(s):                    -0.2527236938E-003
Af1(s/s):                   0.0000000000E+000
week:                        708

******** Week 708 almanac for PRN-17 ********
ID:                         17
Health:                     000
Eccentricity:               0.8253574371E-002
Time of Applicability(s):  233472.0000
Orbital Inclination(rad):   0.9646845648
Rate of Right Ascen(r/s):  -0.7806039439E-008
SQRT(A)  (m 1/2):           5153.551758
Right Ascen at Week(rad):  -0.1220107196E+001
Argument of Perigee(rad):  -2.207638413
Mean Anom(rad):             0.2855662904E+001
Af0(s):                     0.3910064697E-004
Af1(s/s):                  -0.3637978807E-011
week:                        708

